H1 CPF  1  DLR 2022 09 15 10  7582 technosat            
H2  1704205 6203    42829 2022 09 15 00 00 00 2022 09 22 00 00 00    60 1 1  0 0 0
H9
10 0 59837  50400.000000  0        -32076.201       4929232.216       4915866.696
10 0 59837  50460.000000  0         71500.453       5235002.335       4590267.934
10 0 59837  50520.000000  0        177350.051       5517746.774       4245141.849
10 0 59837  50580.000000  0        284818.884       5776256.733       3881958.232
10 0 59837  50640.000000  0        393236.368       6009432.136       3502264.003
10 0 59837  50700.000000  0        501918.872       6216286.934       3107676.669
10 0 59837  50760.000000  0        610173.778       6395953.761       2699877.008
10 0 59837  50820.000000  0        717303.563       6547687.395       2280601.466
10 0 59837  50880.000000  0        822609.789       6670867.889       1851634.850
10 0 59837  50940.000000  0        925397.214       6765003.361       1414802.446
10 0 59837  51000.000000  0       1024977.925       6829731.877        971961.967
10 0 59837  51060.000000  0       1120675.424       6864822.784        524995.489
10 0 59837  51120.000000  0       1211828.685       6870177.490         75801.202
10 0 59837  51180.000000  0       1297796.104       6845829.495       -373714.904
10 0 59837  51240.000000  0       1377959.340       6791943.817       -821647.300
10 0 59837  51300.000000  0       1451727.039       6708815.835      -1266099.162
10 0 59837  51360.000000  0       1518538.429       6596869.514      -1705190.545
10 0 59837  51420.000000  0       1577866.735       6456655.023      -2137066.462
10 0 59837  51480.000000  0       1629222.436       6288845.774      -2559904.810
10 0 59837  51540.000000  0       1672156.294       6094234.886      -2971924.101
10 0 59837  51600.000000  0       1706262.182       5873731.104      -3371390.972
10 0 59837  51660.000000  0       1731179.681       5628354.207      -3756627.422
10 0 59837  51720.000000  0       1746596.441       5359229.922      -4126017.742
10 0 59837  51780.000000  0       1752250.267       5067584.393      -4478015.099
10 0 59837  51840.000000  0       1747930.932       4754738.266      -4811147.748
10 0 59837  51900.000000  0       1733481.717       4422100.434      -5124024.873
10 0 59837  51960.000000  0       1708800.700       4071161.492      -5415342.041
10 0 59837  52020.000000  0       1673841.764       3703486.914      -5683886.336
10 0 59837  52080.000000  0       1628615.296       3320709.878      -5928541.060
10 0 59837  52140.000000  0       1573188.589       2924523.909      -6148289.950
10 0 59837  52200.000000  0       1507685.966       2516675.375      -6342220.989
10 0 59837  52260.000000  0       1432288.641       2098955.842      -6509529.769
10 0 59837  52320.000000  0       1347234.320       1673194.383      -6649522.478
10 0 59837  52380.000000  0       1252816.526       1241249.706      -6761618.555
10 0 59837  52440.000000  0       1149383.593        805002.199      -6845352.794
10 0 59837  52500.000000  0       1037337.421        366345.993      -6900377.052
10 0 59837  52560.000000  0        917131.961        -72819.032      -6926461.557
10 0 59837  52620.000000  0        789271.406       -510595.250      -6923495.726
10 0 59837  52680.000000  0        654308.145       -945095.167      -6891488.549
10 0 59837  52740.000000  0        512840.490      -1374449.250      -6830568.588
10 0 59837  52800.000000  0        365510.164      -1796813.644      -6740983.556
10 0 59837  52860.000000  0        212999.552      -2210377.790      -6623099.585
10 0 59837  52920.000000  0         56028.658      -2613372.064      -6477400.090
10 0 59837  52980.000000  0       -104648.164      -3004075.292      -6304484.028
10 0 59837  53040.000000  0       -268245.660      -3380821.980      -6105063.709
10 0 59837  53100.000000  0       -433951.299      -3742009.336      -5879962.246
10 0 59837  53160.000000  0       -600929.105      -4086104.109      -5630110.604
10 0 59837  53220.000000  0       -768323.676      -4411649.216      -5356544.201
10 0 59837  53280.000000  0       -935264.381      -4717270.087      -5060399.045
10 0 59837  53340.000000  0      -1100869.707      -5001680.709      -4742907.434
10 0 59837  53400.000000  0      -1264251.740      -5263689.324      -4405393.217
10 0 59837  53460.000000  0      -1424520.748      -5502203.759      -4049266.621
10 0 59837  53520.000000  0      -1580789.846      -5716236.338      -3676018.674
10 0 59837  53580.000000  0      -1732179.716      -5904908.367      -3287215.235
10 0 59837  53640.000000  0      -1877823.366      -6067454.157      -2884490.654
10 0 59837  53700.000000  0      -2016870.914      -6203224.587      -2469541.076
10 0 59837  53760.000000  0      -2148494.341      -6311690.152      -2044117.373
10 0 59837  53820.000000  0      -2271892.190      -6392443.457      -1610017.772
10 0 59837  53880.000000  0      -2386294.202      -6445201.159      -1169080.185
10 0 59837  53940.000000  0      -2490965.837      -6469805.290       -723174.292
10 0 59837  54000.000000  0      -2585212.659      -6466223.962       -274193.413
10 0 59837  54060.000000  0      -2668384.551      -6434551.442        175953.758
10 0 59837  54120.000000  0      -2739879.718      -6375007.618        625351.521
10 0 59837  54180.000000  0      -2799148.485      -6287936.857       1072085.625
10 0 59837  54240.000000  0      -2845696.836      -6173806.230       1514251.750
10 0 59837  54300.000000  0      -2879089.675      -6033203.106       1949963.963
10 0 59837  54360.000000  0      -2898953.799      -5866832.152       2377363.078
10 0 59837  54420.000000  0      -2904980.535      -5675511.767       2794624.896
10 0 59837  54480.000000  0      -2896928.051      -5460169.952       3199968.284
10 0 59837  54540.000000  0      -2874623.308      -5221839.664       3591663.023
10 0 59837  54600.000000  0      -2837963.667      -4961653.675       3968037.408
10 0 59837  54660.000000  0      -2786918.130      -4680838.971       4327485.569
10 0 59837  54720.000000  0      -2721528.238      -4380710.720       4668474.452
10 0 59837  54780.000000  0      -2641908.607      -4062665.865       4989550.480
10 0 59837  54840.000000  0      -2548247.034      -3728176.302       5289345.853
10 0 59837  54900.000000  0      -2440804.186      -3378781.736       5566584.338
10 0 59837  54960.000000  0      -2319912.959      -3016082.358       5820086.631
10 0 59837  55020.000000  0      -2185977.457      -2641731.293       6048775.311
10 0 59837  55080.000000  0      -2039471.598      -2257426.883       6251679.341
10 0 59837  55140.000000  0      -1880937.382      -1864904.796       6427938.123
10 0 59837  55200.000000  0      -1710982.789      -1465929.969       6576805.076
10 0 59837  55260.000000  0      -1530279.338      -1062288.427       6697650.624
10 0 59837  55320.000000  0      -1339559.365       -655779.123       6789964.596
10 0 59837  55380.000000  0      -1139613.034       -248205.902       6853358.181
10 0 59837  55440.000000  0       -931285.030        158630.518       6887565.524
10 0 59837  55500.000000  0       -715470.930        562940.600       6892444.808
10 0 59837  55560.000000  0       -493113.287        962953.957       6867978.779
10 0 59837  55620.000000  0       -265197.457       1356927.155       6814274.744
10 0 59837  55680.000000  0        -32747.184       1743151.393       6731564.110
10 0 59837  55740.000000  0        203180.064       2119960.003       6620201.345
10 0 59837  55800.000000  0        441497.940       2485735.659       6480662.437
10 0 59837  55860.000000  0        681096.220       2838917.358       6313542.934
10 0 59837  55920.000000  0        920846.000       3178007.196       6119555.497
10 0 59837  55980.000000  0       1159605.023       3501576.845       5899526.924
10 0 59837  56040.000000  0       1396223.125       3808273.698       5654394.685
10 0 59837  56100.000000  0       1629547.786       4096826.657       5385203.037
10 0 59837  56160.000000  0       1858429.785       4366051.598       5093098.664
10 0 59837  56220.000000  0       2081728.921       4614856.430       4779325.810
10 0 59837  56280.000000  0       2298319.696       4842245.631       4445220.946
10 0 59837  56340.000000  0       2507096.972       5047324.341       4092207.121
10 0 59837  56400.000000  0       2706981.594       5229301.991       3721787.928
10 0 59837  56460.000000  0       2896925.971       5387495.582       3335541.210
10 0 59837  56520.000000  0       3075919.646       5521332.560       2935112.207
10 0 59837  56580.000000  0       3242994.655       5630352.984       2522206.252
10 0 59837  56640.000000  0       3397230.667       5714210.995       2098581.256
10 0 59837  56700.000000  0       3537759.877       5772675.789       1666040.102
10 0 59837  56760.000000  0       3663771.683       5805632.137       1226422.793
10 0 59837  56820.000000  0       3774517.128       5813080.351        781598.384
10 0 59837  56880.000000  0       3869313.098       5795135.595        333456.749
10 0 59837  56940.000000  0       3947546.175       5752026.600       -116099.676
10 0 59837  57000.000000  0       4008676.105       5684093.879       -565164.169
10 0 59837  57060.000000  0       4052238.939       5591787.440      -1011833.966
10 0 59837  57120.000000  0       4077849.848       5475664.000      -1454218.510
10 0 59837  57180.000000  0       4085205.506       5336383.633      -1890447.618
10 0 59837  57240.000000  0       4074086.061       5174705.986      -2318679.484
10 0 59837  57300.000000  0       4044356.697       4991486.049      -2737108.542
10 0 59837  57360.000000  0       3995968.766       4787669.467      -3143973.105
10 0 59837  57420.000000  0       3928960.490       4564287.476      -3537562.737
10 0 59837  57480.000000  0       3843457.249       4322451.491      -3916225.297
10 0 59837  57540.000000  0       3739671.505       4063347.450      -4278373.678
99
